STARLINK-4022           
1 52629U 22052AH  24020.79123674  .00000577  00000+0  54329-4 0  9997
2 52629  53.2172 165.6928 0001352  82.0942 278.0204 15.08842343 93787
STARLINK-3989           
1 52630U 22052AJ  24020.67348241 -.00000284  00000+0  22171-6 0  9993
2 52630  53.2178 166.2637 0001560  72.6562 287.4601 15.08841369 93763
STARLINK-3794           
1 52631U 22052AK  24020.79219953  .00000809  00000+0  68929-4 0  9995
2 52631  53.2178 165.7352 0001436  81.1251 278.9903 15.08843340 93787
STARLINK-3995           
1 52632U 22052AL  24020.66980868 -.00000402  00000+0 -71600-5 0  9994
2 52632  53.2173 166.2796 0001800  61.5161 298.6012 15.08838149 93767
STARLINK-3994           
1 52633U 22052AM  24020.78020147 -.00002269  00000+0 -12452-3 0  9994
2 52633  53.2165 165.7808 0001163  92.3846 267.7279 15.08832870 93780
STARLINK-3974           
1 52634U 22052AN  24020.66245110 -.00000364  00000+0 -47638-5 0  9991
2 52634  53.2178 166.3405 0001702  63.8677 296.2490 15.08839123 93767
STARLINK-3978           
1 52635U 22052AP  24020.69649645  .00000016  00000+0  19107-4 0  9997
2 52635  53.2164 156.1584 0001403  72.7261 287.3885 15.08833814 93900
STARLINK-3967           
1 52636U 22052AQ  24020.78755750  .00000378  00000+0  41818-4 0  9998
2 52636  53.2178 165.7456 0001409  71.0001 289.1144 15.08855301 93789
STARLINK-3961           
1 52637U 22052AR  24020.62656505 -.00000096  00000+0  12070-4 0  9996
2 52637  53.2166 156.4715 0001473 102.6379 257.4778 15.08840443 94325
STARLINK-3941           
1 52638U 22052AS  24020.78388032  .00000707  00000+0  62493-4 0  9993
2 52638  53.2177 165.7667 0001517  81.7110 278.4054 15.08845486 93787
STARLINK-3968           
1 52639U 22052AT  24020.74800550 -.00000004  00000+0  17860-4 0  9993
2 52639  53.2176 155.9236 0001376  86.9617 273.1532 15.08837823 93916
STARLINK-3977           
1 52640U 22052AU  24020.56769485 -.00000815  00000+0 -33113-4 0  9996
2 52640  53.2178 156.7646 0001718  97.1711 262.9477 15.08835323 93505
STARLINK-3991           
1 52641U 22052AV  24020.76370156  .00000136  00000+0  26604-4 0  9993
2 52641  53.2161 156.0585 0001249  77.1204 282.9928 15.08840785 93913
STARLINK-3971           
1 52642U 22052AW  24020.68909483  .00004970  00000+0  32986-3 0  9995
2 52642  53.2175 156.1868 0001598  82.4046 277.7128 15.08874124 93901
STARLINK-3963           
1 52643U 22052AX  24020.59811448  .00023833  00000+0  15152-2 0  9993
2 52643  53.2162 156.5621 0001872  92.9738 267.1468 15.08724638 93890
STARLINK-3985           
1 52644U 22052AY  24020.61920757 -.00000570  00000+0 -17741-4 0  9994
2 52644  53.2172 156.5011 0001629 103.6414 256.4759 15.08837105 93513
STARLINK-3973           
1 52645U 22052AZ  24020.80690147  .00000136  00000+0  26612-4 0  9996
2 52645  53.2173 155.7621 0001515 103.4008 256.7153 15.08834658 93920
STARLINK-3832           
1 52646U 22052BA  24020.61185436 -.00000055  00000+0  14654-4 0  9990
2 52646  53.2170 156.5769 0001453  94.8887 265.2271 15.08832382 93523
STARLINK-3846           
1 52647U 22052BB  24020.66705807  .00000593  00000+0  55316-4 0  9992
2 52647  53.2173 156.3967 0001411  96.3704 263.7449 15.08841022 93907
STARLINK-3854           
1 52648U 22052BC  24020.73696185 -.00000107  00000+0  11386-4 0  9990
2 52648  53.2173 155.9726 0001338  84.2452 275.8693 15.08841480 93914
STARLINK-3868           
1 52649U 22052BD  24020.77742160  .00000585  00000+0  54852-4 0  9994
2 52649  53.2169 155.6455 0001590  51.1721 308.9412 15.08849252 93921
STARLINK-3891           
1 52650U 22052BE  24020.74525935  .00000518  00000+0  50619-4 0  9995
2 52650  53.2174 146.0410 0001436  79.9530 280.1624 15.08839689 94053
STARLINK-4004           
1 52656U 22053A   24020.37779487 -.00007854  00000+0 -47672-3 0  9990
2 52656  53.2183  52.6027 0001948 101.7477 258.3733 15.08775187 93461
STARLINK-4084           
1 52657U 22053B   24020.34834281 -.00000963  00000+0 -42410-4 0  9992
2 52657  53.2169  53.0391 0001572 100.4960 259.6209 15.08839731 93751
STARLINK-4082           
1 52658U 22053C   24020.31423106  .00002159  00000+0  15376-3 0  9997
2 52658  53.2189  52.8697 0001278  90.1663 269.9476 15.08827422 93572
STARLINK-3960           
1 52659U 22053D   24020.31054592  .00004007  00000+0  26976-3 0  9999
2 52659  53.2187  52.8454 0001918  94.2237 265.8975 15.08831313 93567
STARLINK-4081           
1 52660U 22053E   24020.50558462 -.00000515  00000+0 -14267-4 0  9990
2 52660  53.2185  52.0139 0001874 107.9224 252.1973 15.08841022 93484
STARLINK-4042           
1 52661U 22053F   24020.50189970  .00000754  00000+0  65444-4 0  9991
2 52661  53.2182  52.0319 0001738 103.7652 256.3534 15.08848260 93413
STARLINK-4044           
1 52662U 22053G   24020.36206428  .00000037  00000+0  20450-4 0  9996
2 52662  53.2180  52.6595 0001829 100.7776 259.3422 15.08843286 93398
STARLINK-4037           
1 52663U 22053H   24020.35838278  .00000194  00000+0  30306-4 0  9995
2 52663  53.2188  52.6749 0001779 111.4701 248.6481 15.08845768 93392
STARLINK-4070           
1 52664U 22053J   24020.36574670  .00002117  00000+0  15108-3 0  9999
2 52664  53.2189  52.6462 0001934 105.3028 254.8178 15.08840345 93391
STARLINK-4064           
1 52665U 22053K   24020.34734588  .00001402  00000+0  10617-3 0  9990
2 52665  53.2172  52.7258 0001748  94.8808 265.2384 15.08839274 93393
STARLINK-4079           
1 52666U 22053L   24020.51657515  .00000798  00000+0  68240-4 0  9997
2 52666  53.2171  51.5770 0001673 114.2123 245.9044 15.08843540 93426
STARLINK-4076           
1 52667U 22053M   24020.40990628  .00001086  00000+0  86345-4 0  9998
2 52667  53.2185  52.4451 0001782  86.5416 273.5780 15.08842010 93408
STARLINK-4067           
1 52668U 22053N   24020.35102727  .00000491  00000+0  48921-4 0  9995
2 52668  53.2187  52.7115 0001930  74.4136 285.7069 15.08842736 93399
STARLINK-3972           
1 52669U 22053P   24020.39886999  .00000922  00000+0  76024-4 0  9994
2 52669  53.2167  52.4931 0001500  76.2081 283.9078 15.08839788 93396
STARLINK-4075           
1 52670U 22053Q   24020.35471366  .00000305  00000+0  37268-4 0  9992
2 52670  53.2164  52.7610 0001645  92.9792 267.1388 15.08843375 93391
STARLINK-4071           
1 52671U 22053R   24020.39519458 -.00002185  00000+0 -11923-3 0  9991
2 52671  53.2171  52.5128 0001551  71.5212 288.5949 15.08843857 93393
STARLINK-4073           
1 52672U 22053S   24020.40622682  .00000802  00000+0  68493-4 0  9995
2 52672  53.2163  52.4614 0001680  84.3552 275.7632 15.08838977 93390
STARLINK-3976           
1 52673U 22053T   24020.32158860  .00000813  00000+0  69170-4 0  9994
2 52673  53.2164  52.8369 0001440  99.5961 260.5194 15.08836002 93380
STARLINK-3936           
1 52674U 22053U   24020.40254908  .00000906  00000+0  74991-4 0  9994
2 52674  53.2163  52.4744 0001513  70.9289 289.1867 15.08837390 93408
STARLINK-3934           
1 52675U 22053V   24020.31882268  .00000977  00000+0  79474-4 0  9990
2 52675  53.2171  42.8438 0001094 108.7688 251.3423 15.08841053 93510
STARLINK-4006           
1 52676U 22053W   24020.39150871  .00000189  00000+0  29957-4 0  9993
2 52676  53.2179  52.5293 0001822  89.3087 270.8114 15.08838125 93397
STARLINK-4028           
1 52677U 22053X   24020.37770443  .00000535  00000+0  51711-4 0  9993
2 52677  53.2168  42.5845 0001404  93.8275 266.2878 15.08839824 93093
STARLINK-4074           
1 52678U 22053Y   24020.32988000  .00000277  00000+0  35523-4 0  9995
2 52678  53.2174  42.9134 0001675  94.5847 265.5337 15.08839833 93518
STARLINK-4031           
1 52679U 22053Z   24020.49914420 -.00000193  00000+0  59459-5 0  9992
2 52679  53.2176  42.0421 0001431 100.9617 259.1536 15.08845264 93502
STARLINK-3774           
1 52680U 22053AA  24020.38231989  .00000366  00000+0  41079-4 0  9993
2 52680  53.2191  42.5804 0001533  82.5800 277.5367 15.08877529 93508
STARLINK-4068           
1 52681U 22053AB  24020.36298403  .00001107  00000+0  87637-4 0  9990
2 52681  53.2189  42.6573 0001637 102.9534 257.1641 15.08841790 93483
STARLINK-4017           
1 52682U 22053AC  24020.37403044  .00001665  00000+0  12268-3 0  9997
2 52682  53.2183  42.6039 0001524  71.2595 288.8563 15.08836639 93508
STARLINK-4039           
1 52683U 22053AD  24020.28939083  .00001969  00000+0  14176-3 0  9992
2 52683  53.2180  42.9797 0002173 101.4081 258.7155 15.08839670 93474
STARLINK-4014           
1 52684U 22053AE  24020.37034775  .00001933  00000+0  13953-3 0  9990
2 52684  53.2177  42.6122 0001436  83.3337 276.7818 15.08838223 93483
STARLINK-4029           
1 52685U 22053AF  24020.34829162  .00030790  00000+0  19425-2 0  9992
2 52685  53.2180  42.7255 0001724  94.1019 266.0170 15.08872505 93465
STARLINK-4005           
1 52686U 22053AG  24020.35930762  .00000109  00000+0  24941-4 0  9995
2 52686  53.2185  42.6699 0001691 108.1918 251.9258 15.08839065 93474
STARLINK-3981           
1 52687U 22053AH  24020.34458486  .00000898  00000+0  74530-4 0  9997
2 52687  53.2182  42.7400 0001701 104.7454 255.3727 15.08841166 93465
STARLINK-4032           
1 52688U 22053AJ  24020.34088194  .00000255  00000+0  34109-4 0  9998
2 52688  53.2183  42.6345 0001624 112.9373 247.1791 15.08851404 93465
STARLINK-4078           
1 52689U 22053AK  24020.33354463  .00000878  00000+0  73239-4 0  9991
2 52689  53.2180  42.7891 0001673  86.8824 273.2360 15.08845003 93497
STARLINK-4035           
1 52690U 22053AL  24020.28570699  .00000034  00000+0  20212-4 0  9995
2 52690  53.2173  43.0005 0001508  93.7411 266.3754 15.08838752 93457
STARLINK-3945           
1 52691U 22053AM  24020.35293520  .00001479  00000+0  11099-3 0  9995
2 52691  53.2167  42.9515 0001620  98.0877 262.0299 15.08842888 93096
STARLINK-3993           
1 52692U 22053AN  24020.38135273  .00001354  00000+0  10317-3 0  9993
2 52692  53.2172  42.3053 0001599  74.7472 285.3697 15.08842684 93501
